IRIDIUM 166             
1 43570U 18061B   24197.91211246  .00000064  00000+0  15755-4 0  9990
2 43570  86.3990 349.8033 0002437  92.3538 267.7937 14.34217994312889
IRIDIUM 158             
1 43571U 18061C   24197.95016730  .00000077  00000+0  20455-4 0  9993
2 43571  86.3990 349.7968 0002193  89.3807 270.7640 14.34218118312851
IRIDIUM 165             
1 43572U 18061D   24198.18484303  .00000217  00000+0  70586-4 0  9991
2 43572  86.3991 349.7317 0002183  89.3627 270.7819 14.34218438312910
IRIDIUM 155             
1 43573U 18061E   24197.93748251 -.00000040  00000+0 -21227-4 0  9993
2 43573  86.3985 349.7391 0002298  91.2893 268.8566 14.34217608312847
IRIDIUM 154             
1 43574U 18061F   24197.91845405  .00000064  00000+0  15793-4 0  9996
2 43574  86.3992 349.8459 0001943  95.9795 264.1622 14.34217863312890
IRIDIUM 163             
1 43575U 18061G   24198.17849950  .00000415  00000+0  14114-3 0  9990
2 43575  86.3989 349.6746 0002134  94.0329 266.1111 14.34219445312905
IRIDIUM 156             
1 43576U 18061H   24197.94382477  .00000103  00000+0  29704-4 0  9997
2 43576  86.3990 349.7791 0002234  88.6546 271.4906 14.34218014312856
IRIDIUM 164             
1 43577U 18061J   24197.92479657  .00000056  00000+0  12866-4 0  9991
2 43577  86.3991 349.8164 0001909  87.0227 273.1188 14.34217916312907
